INTELSAT 18 (IS-18)     
1 37834U 11056A   26094.21190662  .00000053  00000+0  00000+0 0  9992
2 37834   0.0177 250.8938 0001978 124.3087  73.6110  1.00273746 53069
EUTELSAT 16A            
1 37836U 11057A   26094.19419966  .00000103  00000+0  00000+0 0  9999
2 37836   0.0583  14.9844 0005547   2.3828 261.0447  1.00272864  6593
VIASAT-1                
1 37843U 11059A   26094.58124459 -.00000024  00000+0  00000+0 0  9995
2 37843   0.0181 225.8067 0002529 152.4126 268.8224  1.00273130 46588
ASIASAT 7               
1 37933U 11069A   26094.05451933 -.00000335  00000+0  00000+0 0  9993
2 37933   0.0181 186.3144 0001782 188.4836 302.6876  1.00274928 44115
BEIDOU-2 IGSO-5         
1 37948U 11073A   26093.97039089 -.00000174  00000+0  00000+0 0  9999
2 37948  47.8149 272.4589 0109539 220.8427 142.8662  1.00265759 52398
LUCH-5A                 
1 37951U 11074B   26094.23030840 -.00000047  00000+0  00000+0 0  9999
2 37951   8.5670  74.8810 0003176 284.4600  83.0440  1.00271206 52311
NIGCOMSAT 1R            
1 38014U 11077A   26094.24350380  .00000144  00000+0  00000+0 0  9995
2 38014   0.0386 239.9770 0002951  94.6085 348.1459  1.00268617 52216
WGS F4 (USA 233)        
1 38070U 12003A   26094.12246627 -.00000216  00000+0  00000+0 0  9993
2 38070   0.0169 187.3607 0000145 180.4331 317.1246  1.00272164 43406
SES-4                   
1 38087U 12007A   26094.21642233 -.00000169  00000+0  00000+0 0  9995
2 38087   0.0293  65.6049 0002267 315.9599 226.8854  1.00271821 51485
BEIDOU-2 G5             
1 38091U 12008A   26094.18789986  .00000057  00000+0  00000+0 0  9999
2 38091   3.3901  70.1219 0013251 260.9431 347.8598  1.00275805 51622
MUOS-1                  
1 38093U 12009A   26094.27709020 -.00000126  00000+0  00000+0 0  9991
2 38093   5.3256  47.1831 0058898 359.7937 145.4249  1.00271644 51708
INTELSAT 22 (IS-22)     
1 38098U 12011A   26094.19049987 -.00000059  00000+0  00000+0 0  9994
2 38098   0.0126 222.1585 0001678 156.2103 314.8226  1.00271481  6448
APSTAR-7                
1 38107U 12013A   26094.12012626 -.00000102  00000+0  00000+0 0  9999
2 38107   0.0119 188.5875 0002762 200.8153 282.7759  1.00272110 51066
YAHSAT 1B               
1 38245U 12016A   26094.18564653  .00000126  00000+0  00000+0 0  9998
2 38245   0.0927  87.6590 0002820 289.1778 290.0844  1.00271503 44869
AEHF-2 (USA 235)        
1 38254U 12019A   26094.21628344 -.00000133  00000+0  00000+0 0  9992
2 38254   6.4800  58.0182 0002858 302.3605 253.5500  1.00271294  6246
JCSAT-13                
1 38331U 12023A   26094.24087556 -.00000357  00000+0  00000+0 0  9998
2 38331   0.0428  79.0047 0002630 324.0869   0.1779  1.00270797 50792
VINASAT-2               
1 38332U 12023B   26094.25600255 -.00000329  00000+0  00000+0 0  9996
2 38332   0.0394  44.4701 0002805 347.5467  24.5573  1.00272878 45918
