[{"OBJECT_NAME":"INTELSAT 18 (IS-18)","OBJECT_ID":"2011-056A","EPOCH":"2026-04-04T05:05:08.731968","MEAN_MOTION":1.00273746,"ECCENTRICITY":0.00019789,"INCLINATION":0.0177,"RA_OF_ASC_NODE":250.8938,"ARG_OF_PERICENTER":124.3087,"MEAN_ANOMALY":73.611,"EPHEMERIS_TYPE":0,"CLASSIFICATION_TYPE":"U","NORAD_CAT_ID":37834,"ELEMENT_SET_NO":999,"REV_AT_EPOCH":5306,"BSTAR":0,"MEAN_MOTION_DOT":5.3e-7,"MEAN_MOTION_DDOT":0},{"OBJECT_NAME":"EUTELSAT 16A","OBJECT_ID":"2011-057A","EPOCH":"2026-04-04T04:39:38.850624","MEAN_MOTION":1.00272864,"ECCENTRICITY":0.00055476,"INCLINATION":0.0583,"RA_OF_ASC_NODE":14.9844,"ARG_OF_PERICENTER":2.3828,"MEAN_ANOMALY":261.0447,"EPHEMERIS_TYPE":0,"CLASSIFICATION_TYPE":"U","NORAD_CAT_ID":37836,"ELEMENT_SET_NO":999,"REV_AT_EPOCH":659,"BSTAR":0,"MEAN_MOTION_DOT":1.03e-6,"MEAN_MOTION_DDOT":0},{"OBJECT_NAME":"VIASAT-1","OBJECT_ID":"2011-059A","EPOCH":"2026-04-04T13:56:59.532576","MEAN_MOTION":1.0027313,"ECCENTRICITY":0.0002529,"INCLINATION":0.0181,"RA_OF_ASC_NODE":225.8067,"ARG_OF_PERICENTER":152.4126,"MEAN_ANOMALY":268.8224,"EPHEMERIS_TYPE":0,"CLASSIFICATION_TYPE":"U","NORAD_CAT_ID":37843,"ELEMENT_SET_NO":999,"REV_AT_EPOCH":4658,"BSTAR":0,"MEAN_MOTION_DOT":-2.4e-7,"MEAN_MOTION_DDOT":0},{"OBJECT_NAME":"ASIASAT 7","OBJECT_ID":"2011-069A","EPOCH":"2026-04-04T01:18:30.470112","MEAN_MOTION":1.00274928,"ECCENTRICITY":0.0001782,"INCLINATION":0.0181,"RA_OF_ASC_NODE":186.3144,"ARG_OF_PERICENTER":188.4836,"MEAN_ANOMALY":302.6876,"EPHEMERIS_TYPE":0,"CLASSIFICATION_TYPE":"U","NORAD_CAT_ID":37933,"ELEMENT_SET_NO":999,"REV_AT_EPOCH":4411,"BSTAR":0,"MEAN_MOTION_DOT":-3.35e-6,"MEAN_MOTION_DDOT":0},{"OBJECT_NAME":"BEIDOU-2 IGSO-5","OBJECT_ID":"2011-073A","EPOCH":"2026-04-03T23:17:21.772896","MEAN_MOTION":1.00265759,"ECCENTRICITY":0.01095393,"INCLINATION":47.8149,"RA_OF_ASC_NODE":272.4589,"ARG_OF_PERICENTER":220.8427,"MEAN_ANOMALY":142.8662,"EPHEMERIS_TYPE":0,"CLASSIFICATION_TYPE":"U","NORAD_CAT_ID":37948,"ELEMENT_SET_NO":999,"REV_AT_EPOCH":5239,"BSTAR":0,"MEAN_MOTION_DOT":-1.74e-6,"MEAN_MOTION_DDOT":0},{"OBJECT_NAME":"LUCH-5A","OBJECT_ID":"2011-074B","EPOCH":"2026-04-04T05:31:38.645760","MEAN_MOTION":1.00271206,"ECCENTRICITY":0.00031768,"INCLINATION":8.567,"RA_OF_ASC_NODE":74.881,"ARG_OF_PERICENTER":284.46,"MEAN_ANOMALY":83.044,"EPHEMERIS_TYPE":0,"CLASSIFICATION_TYPE":"U","NORAD_CAT_ID":37951,"ELEMENT_SET_NO":999,"REV_AT_EPOCH":5231,"BSTAR":0,"MEAN_MOTION_DOT":-4.7e-7,"MEAN_MOTION_DDOT":0},{"OBJECT_NAME":"NIGCOMSAT 1R","OBJECT_ID":"2011-077A","EPOCH":"2026-04-04T05:50:38.728320","MEAN_MOTION":1.00268617,"ECCENTRICITY":0.0002951,"INCLINATION":0.0386,"RA_OF_ASC_NODE":239.977,"ARG_OF_PERICENTER":94.6085,"MEAN_ANOMALY":348.1459,"EPHEMERIS_TYPE":0,"CLASSIFICATION_TYPE":"U","NORAD_CAT_ID":38014,"ELEMENT_SET_NO":999,"REV_AT_EPOCH":5221,"BSTAR":0,"MEAN_MOTION_DOT":1.44e-6,"MEAN_MOTION_DDOT":0},{"OBJECT_NAME":"WGS F4 (USA 233)","OBJECT_ID":"2012-003A","EPOCH":"2026-04-04T02:56:21.085728","MEAN_MOTION":1.00272164,"ECCENTRICITY":1.451e-5,"INCLINATION":0.0169,"RA_OF_ASC_NODE":187.3607,"ARG_OF_PERICENTER":180.4331,"MEAN_ANOMALY":317.1246,"EPHEMERIS_TYPE":0,"CLASSIFICATION_TYPE":"U","NORAD_CAT_ID":38070,"ELEMENT_SET_NO":999,"REV_AT_EPOCH":4340,"BSTAR":0,"MEAN_MOTION_DOT":-2.16e-6,"MEAN_MOTION_DDOT":0},{"OBJECT_NAME":"SES-4","OBJECT_ID":"2012-007A","EPOCH":"2026-04-04T05:11:38.889312","MEAN_MOTION":1.00271821,"ECCENTRICITY":0.00022675,"INCLINATION":0.0293,"RA_OF_ASC_NODE":65.6049,"ARG_OF_PERICENTER":315.9599,"MEAN_ANOMALY":226.8854,"EPHEMERIS_TYPE":0,"CLASSIFICATION_TYPE":"U","NORAD_CAT_ID":38087,"ELEMENT_SET_NO":999,"REV_AT_EPOCH":5148,"BSTAR":0,"MEAN_MOTION_DOT":-1.69e-6,"MEAN_MOTION_DDOT":0},{"OBJECT_NAME":"BEIDOU-2 G5","OBJECT_ID":"2012-008A","EPOCH":"2026-04-04T04:30:34.547904","MEAN_MOTION":1.00275805,"ECCENTRICITY":0.00132513,"INCLINATION":3.3901,"RA_OF_ASC_NODE":70.1219,"ARG_OF_PERICENTER":260.9431,"MEAN_ANOMALY":347.8598,"EPHEMERIS_TYPE":0,"CLASSIFICATION_TYPE":"U","NORAD_CAT_ID":38091,"ELEMENT_SET_NO":999,"REV_AT_EPOCH":5162,"BSTAR":0,"MEAN_MOTION_DOT":5.7e-7,"MEAN_MOTION_DDOT":0},{"OBJECT_NAME":"MUOS-1","OBJECT_ID":"2012-009A","EPOCH":"2026-04-04T06:39:00.593280","MEAN_MOTION":1.00271644,"ECCENTRICITY":0.00588986,"INCLINATION":5.3256,"RA_OF_ASC_NODE":47.1831,"ARG_OF_PERICENTER":359.7937,"MEAN_ANOMALY":145.4249,"EPHEMERIS_TYPE":0,"CLASSIFICATION_TYPE":"U","NORAD_CAT_ID":38093,"ELEMENT_SET_NO":999,"REV_AT_EPOCH":5170,"BSTAR":0,"MEAN_MOTION_DOT":-1.26e-6,"MEAN_MOTION_DDOT":0},{"OBJECT_NAME":"INTELSAT 22 (IS-22)","OBJECT_ID":"2012-011A","EPOCH":"2026-04-04T04:34:19.188768","MEAN_MOTION":1.00271481,"ECCENTRICITY":0.00016789,"INCLINATION":0.0126,"RA_OF_ASC_NODE":222.1585,"ARG_OF_PERICENTER":156.2103,"MEAN_ANOMALY":314.8226,"EPHEMERIS_TYPE":0,"CLASSIFICATION_TYPE":"U","NORAD_CAT_ID":38098,"ELEMENT_SET_NO":999,"REV_AT_EPOCH":644,"BSTAR":0,"MEAN_MOTION_DOT":-5.9e-7,"MEAN_MOTION_DDOT":0},{"OBJECT_NAME":"APSTAR-7","OBJECT_ID":"2012-013A","EPOCH":"2026-04-04T02:52:58.908864","MEAN_MOTION":1.0027211,"ECCENTRICITY":0.00027623,"INCLINATION":0.0119,"RA_OF_ASC_NODE":188.5875,"ARG_OF_PERICENTER":200.8153,"MEAN_ANOMALY":282.7759,"EPHEMERIS_TYPE":0,"CLASSIFICATION_TYPE":"U","NORAD_CAT_ID":38107,"ELEMENT_SET_NO":999,"REV_AT_EPOCH":5106,"BSTAR":0,"MEAN_MOTION_DOT":-1.02e-6,"MEAN_MOTION_DDOT":0},{"OBJECT_NAME":"YAHSAT 1B","OBJECT_ID":"2012-016A","EPOCH":"2026-04-04T04:27:19.860192","MEAN_MOTION":1.00271503,"ECCENTRICITY":0.00028208,"INCLINATION":0.0927,"RA_OF_ASC_NODE":87.659,"ARG_OF_PERICENTER":289.1778,"MEAN_ANOMALY":290.0844,"EPHEMERIS_TYPE":0,"CLASSIFICATION_TYPE":"U","NORAD_CAT_ID":38245,"ELEMENT_SET_NO":999,"REV_AT_EPOCH":4486,"BSTAR":0,"MEAN_MOTION_DOT":1.26e-6,"MEAN_MOTION_DDOT":0},{"OBJECT_NAME":"AEHF-2 (USA 235)","OBJECT_ID":"2012-019A","EPOCH":"2026-04-04T05:11:26.889216","MEAN_MOTION":1.00271294,"ECCENTRICITY":0.00028586,"INCLINATION":6.48,"RA_OF_ASC_NODE":58.0182,"ARG_OF_PERICENTER":302.3605,"MEAN_ANOMALY":253.55,"EPHEMERIS_TYPE":0,"CLASSIFICATION_TYPE":"U","NORAD_CAT_ID":38254,"ELEMENT_SET_NO":999,"REV_AT_EPOCH":624,"BSTAR":0,"MEAN_MOTION_DOT":-1.33e-6,"MEAN_MOTION_DDOT":0},{"OBJECT_NAME":"JCSAT-13","OBJECT_ID":"2012-023A","EPOCH":"2026-04-04T05:46:51.648384","MEAN_MOTION":1.00270797,"ECCENTRICITY":0.00026302,"INCLINATION":0.0428,"RA_OF_ASC_NODE":79.0047,"ARG_OF_PERICENTER":324.0869,"MEAN_ANOMALY":0.1779,"EPHEMERIS_TYPE":0,"CLASSIFICATION_TYPE":"U","NORAD_CAT_ID":38331,"ELEMENT_SET_NO":999,"REV_AT_EPOCH":5079,"BSTAR":0,"MEAN_MOTION_DOT":-3.57e-6,"MEAN_MOTION_DDOT":0},{"OBJECT_NAME":"VINASAT-2","OBJECT_ID":"2012-023B","EPOCH":"2026-04-04T06:08:38.620320","MEAN_MOTION":1.00272878,"ECCENTRICITY":0.00028059,"INCLINATION":0.0394,"RA_OF_ASC_NODE":44.4701,"ARG_OF_PERICENTER":347.5467,"MEAN_ANOMALY":24.5573,"EPHEMERIS_TYPE":0,"CLASSIFICATION_TYPE":"U","NORAD_CAT_ID":38332,"ELEMENT_SET_NO":999,"REV_AT_EPOCH":4591,"BSTAR":0,"MEAN_MOTION_DOT":-3.29e-6,"MEAN_MOTION_DDOT":0}]
